[{"OBJECT_NAME":"STARLINK-2753","OBJECT_ID":"2021-044BL","EPOCH":"2025-08-26T17:14:21.493248","MEAN_MOTION":15.06397342,"ECCENTRICITY":0.00011187,"INCLINATION":53.0535,"RA_OF_ASC_NODE":246.9298,"ARG_OF_PERICENTER":78.549,"MEAN_ANOMALY":281.5625,"EPHEMERIS_TYPE":0,"CLASSIFICATION_TYPE":"U","NORAD_CAT_ID":48696,"ELEMENT_SET_NO":999,"REV_AT_EPOCH":23474,"BSTAR":6.2312017e-5,"MEAN_MOTION_DOT":6.47e-6,"MEAN_MOTION_DDOT":0},{"OBJECT_NAME":"STARLINK-3004","OBJECT_ID":"2021-059B","EPOCH":"2025-08-26T22:20:10.640544","MEAN_MOTION":15.01272624,"ECCENTRICITY":0.0001397,"INCLINATION":97.66,"RA_OF_ASC_NODE":3.2017,"ARG_OF_PERICENTER":123.0103,"MEAN_ANOMALY":237.1255,"EPHEMERIS_TYPE":0,"CLASSIFICATION_TYPE":"U","NORAD_CAT_ID":48880,"ELEMENT_SET_NO":999,"REV_AT_EPOCH":22958,"BSTAR":0.00021881593,"MEAN_MOTION_DOT":2.753e-5,"MEAN_MOTION_DDOT":0},{"OBJECT_NAME":"STARLINK-3005","OBJECT_ID":"2021-059C","EPOCH":"2025-08-26T22:10:33.436704","MEAN_MOTION":15.01259345,"ECCENTRICITY":0.00025411,"INCLINATION":97.6591,"RA_OF_ASC_NODE":3.1392,"ARG_OF_PERICENTER":198.6508,"MEAN_ANOMALY":161.4623,"EPHEMERIS_TYPE":0,"CLASSIFICATION_TYPE":"U","NORAD_CAT_ID":48881,"ELEMENT_SET_NO":999,"REV_AT_EPOCH":22958,"BSTAR":9.748559e-6,"MEAN_MOTION_DOT":6.6e-7,"MEAN_MOTION_DDOT":0},{"OBJECT_NAME":"STARLINK-3096","OBJECT_ID":"2021-082B","EPOCH":"2025-08-26T19:41:12.158304","MEAN_MOTION":14.98332462,"ECCENTRICITY":0.00034236,"INCLINATION":70.0012,"RA_OF_ASC_NODE":25.7815,"ARG_OF_PERICENTER":263.894,"MEAN_ANOMALY":96.1829,"EPHEMERIS_TYPE":0,"CLASSIFICATION_TYPE":"U","NORAD_CAT_ID":49131,"ELEMENT_SET_NO":999,"REV_AT_EPOCH":21777,"BSTAR":9.905228e-6,"MEAN_MOTION_DOT":2.5e-7,"MEAN_MOTION_DDOT":0},{"OBJECT_NAME":"STARLINK-3090","OBJECT_ID":"2021-082C","EPOCH":"2025-08-26T21:36:01.279584","MEAN_MOTION":14.98330132,"ECCENTRICITY":0.00028815,"INCLINATION":69.9995,"RA_OF_ASC_NODE":65.464,"ARG_OF_PERICENTER":268.3453,"MEAN_ANOMALY":91.7376,"EPHEMERIS_TYPE":0,"CLASSIFICATION_TYPE":"U","NORAD_CAT_ID":49132,"ELEMENT_SET_NO":999,"REV_AT_EPOCH":21680,"BSTAR":-2.1737887e-5,"MEAN_MOTION_DOT":-3.52e-6,"MEAN_MOTION_DDOT":0},{"OBJECT_NAME":"STARLINK-3077","OBJECT_ID":"2021-082D","EPOCH":"2025-08-26T22:00:03.645504","MEAN_MOTION":14.98333995,"ECCENTRICITY":0.00027198,"INCLINATION":69.9996,"RA_OF_ASC_NODE":65.5476,"ARG_OF_PERICENTER":268.8516,"MEAN_ANOMALY":91.2331,"EPHEMERIS_TYPE":0,"CLASSIFICATION_TYPE":"U","NORAD_CAT_ID":49133,"ELEMENT_SET_NO":999,"REV_AT_EPOCH":21680,"BSTAR":3.4115211e-5,"MEAN_MOTION_DOT":3.14e-6,"MEAN_MOTION_DDOT":0},{"OBJECT_NAME":"STARLINK-3078","OBJECT_ID":"2021-082E","EPOCH":"2025-08-26T21:54:03.163104","MEAN_MOTION":14.98332022,"ECCENTRICITY":0.00029758,"INCLINATION":69.9997,"RA_OF_ASC_NODE":65.5621,"ARG_OF_PERICENTER":269.3258,"MEAN_ANOMALY":90.756,"EPHEMERIS_TYPE":0,"CLASSIFICATION_TYPE":"U","NORAD_CAT_ID":49134,"ELEMENT_SET_NO":999,"REV_AT_EPOCH":21800,"BSTAR":1.8624301e-5,"MEAN_MOTION_DOT":1.29e-6,"MEAN_MOTION_DDOT":0},{"OBJECT_NAME":"STARLINK-3073","OBJECT_ID":"2021-082F","EPOCH":"2025-08-26T19:35:14.204832","MEAN_MOTION":14.98306792,"ECCENTRICITY":0.0002307,"INCLINATION":70.0019,"RA_OF_ASC_NODE":25.786,"ARG_OF_PERICENTER":261.7926,"MEAN_ANOMALY":98.2971,"EPHEMERIS_TYPE":0,"CLASSIFICATION_TYPE":"U","NORAD_CAT_ID":49135,"ELEMENT_SET_NO":999,"REV_AT_EPOCH":21778,"BSTAR":-0.00018714348,"MEAN_MOTION_DOT":-2.324e-5,"MEAN_MOTION_DDOT":0},{"OBJECT_NAME":"STARLINK-3084","OBJECT_ID":"2021-082G","EPOCH":"2025-08-26T22:00:03.999744","MEAN_MOTION":15.41909865,"ECCENTRICITY":0.00034154,"INCLINATION":70.0006,"RA_OF_ASC_NODE":44.0503,"ARG_OF_PERICENTER":267.9201,"MEAN_ANOMALY":200.9433,"EPHEMERIS_TYPE":0,"CLASSIFICATION_TYPE":"U","NORAD_CAT_ID":49136,"ELEMENT_SET_NO":999,"REV_AT_EPOCH":576,"BSTAR":0.03485851,"MEAN_MOTION_DOT":0.01634115,"MEAN_MOTION_DDOT":0},{"OBJECT_NAME":"STARLINK-3055","OBJECT_ID":"2021-082H","EPOCH":"2025-08-26T20:04:54.882048","MEAN_MOTION":14.97525168,"ECCENTRICITY":0.00028235,"INCLINATION":70.0004,"RA_OF_ASC_NODE":45.9163,"ARG_OF_PERICENTER":268.563,"MEAN_ANOMALY":91.5205,"EPHEMERIS_TYPE":0,"CLASSIFICATION_TYPE":"U","NORAD_CAT_ID":49137,"ELEMENT_SET_NO":999,"REV_AT_EPOCH":21728,"BSTAR":2.9382798e-5,"MEAN_MOTION_DOT":2.51e-6,"MEAN_MOTION_DDOT":0},{"OBJECT_NAME":"STARLINK-3058","OBJECT_ID":"2021-082J","EPOCH":"2025-08-26T21:48:02.952864","MEAN_MOTION":14.98329436,"ECCENTRICITY":0.00028829,"INCLINATION":69.9994,"RA_OF_ASC_NODE":65.5758,"ARG_OF_PERICENTER":268.846,"MEAN_ANOMALY":91.2368,"EPHEMERIS_TYPE":0,"CLASSIFICATION_TYPE":"U","NORAD_CAT_ID":49138,"ELEMENT_SET_NO":999,"REV_AT_EPOCH":21680,"BSTAR":3.370099e-6,"MEAN_MOTION_DOT":-5.3e-7,"MEAN_MOTION_DDOT":0},{"OBJECT_NAME":"STARLINK-3057","OBJECT_ID":"2021-082K","EPOCH":"2025-08-26T19:23:10.628160","MEAN_MOTION":14.98344758,"ECCENTRICITY":0.00029212,"INCLINATION":70.0013,"RA_OF_ASC_NODE":25.8132,"ARG_OF_PERICENTER":269.6105,"MEAN_ANOMALY":90.4719,"EPHEMERIS_TYPE":0,"CLASSIFICATION_TYPE":"U","NORAD_CAT_ID":49139,"ELEMENT_SET_NO":999,"REV_AT_EPOCH":21777,"BSTAR":9.2107983e-5,"MEAN_MOTION_DOT":1.007e-5,"MEAN_MOTION_DDOT":0},{"OBJECT_NAME":"STARLINK-3093","OBJECT_ID":"2021-082M","EPOCH":"2025-08-26T21:42:02.148192","MEAN_MOTION":14.98334211,"ECCENTRICITY":0.00030026,"INCLINATION":69.9995,"RA_OF_ASC_NODE":65.5907,"ARG_OF_PERICENTER":276.1864,"MEAN_ANOMALY":83.8953,"EPHEMERIS_TYPE":0,"CLASSIFICATION_TYPE":"U","NORAD_CAT_ID":49141,"ELEMENT_SET_NO":999,"REV_AT_EPOCH":21800,"BSTAR":4.080719e-6,"MEAN_MOTION_DOT":-4.4e-7,"MEAN_MOTION_DDOT":0},{"OBJECT_NAME":"STARLINK-3109","OBJECT_ID":"2021-082P","EPOCH":"2025-08-26T21:35:16.372320","MEAN_MOTION":14.97522424,"ECCENTRICITY":0.0002781,"INCLINATION":70.0003,"RA_OF_ASC_NODE":45.7629,"ARG_OF_PERICENTER":267.9174,"MEAN_ANOMALY":92.1666,"EPHEMERIS_TYPE":0,"CLASSIFICATION_TYPE":"U","NORAD_CAT_ID":49143,"ELEMENT_SET_NO":999,"REV_AT_EPOCH":21840,"BSTAR":-1.4153856e-5,"MEAN_MOTION_DOT":-2.58e-6,"MEAN_MOTION_DDOT":0},{"OBJECT_NAME":"STARLINK-3100","OBJECT_ID":"2021-082Q","EPOCH":"2025-08-26T21:30:01.167840","MEAN_MOTION":14.98343207,"ECCENTRICITY":0.00030713,"INCLINATION":70.0007,"RA_OF_ASC_NODE":65.5901,"ARG_OF_PERICENTER":269.7299,"MEAN_ANOMALY":90.3508,"EPHEMERIS_TYPE":0,"CLASSIFICATION_TYPE":"U","NORAD_CAT_ID":49144,"ELEMENT_SET_NO":999,"REV_AT_EPOCH":21680,"BSTAR":0.0002195913,"MEAN_MOTION_DOT":2.529e-5,"MEAN_MOTION_DDOT":0},{"OBJECT_NAME":"STARLINK-3119","OBJECT_ID":"2021-082R","EPOCH":"2025-08-26T20:17:14.830656","MEAN_MOTION":14.98335849,"ECCENTRICITY":0.00029509,"INCLINATION":70.0014,"RA_OF_ASC_NODE":25.7143,"ARG_OF_PERICENTER":269.6596,"MEAN_ANOMALY":90.4225,"EPHEMERIS_TYPE":0,"CLASSIFICATION_TYPE":"U","NORAD_CAT_ID":49145,"ELEMENT_SET_NO":999,"REV_AT_EPOCH":21777,"BSTAR":4.5890537e-5,"MEAN_MOTION_DOT":4.55e-6,"MEAN_MOTION_DDOT":0},{"OBJECT_NAME":"STARLINK-3116","OBJECT_ID":"2021-082S","EPOCH":"2025-08-26T21:29:15.692928","MEAN_MOTION":14.97524913,"ECCENTRICITY":0.00028029,"INCLINATION":70.0002,"RA_OF_ASC_NODE":45.7761,"ARG_OF_PERICENTER":268.5279,"MEAN_ANOMALY":91.5558,"EPHEMERIS_TYPE":0,"CLASSIFICATION_TYPE":"U","NORAD_CAT_ID":49146,"ELEMENT_SET_NO":999,"REV_AT_EPOCH":21844,"BSTAR":3.3911297e-5,"MEAN_MOTION_DOT":3.04e-6,"MEAN_MOTION_DDOT":0},{"OBJECT_NAME":"STARLINK-3071","OBJECT_ID":"2021-082T","EPOCH":"2025-08-26T17:23:00.348576","MEAN_MOTION":14.98334699,"ECCENTRICITY":0.00030796,"INCLINATION":70.0015,"RA_OF_ASC_NODE":26.038,"ARG_OF_PERICENTER":271.082,"MEAN_ANOMALY":88.9987,"EPHEMERIS_TYPE":0,"CLASSIFICATION_TYPE":"U","NORAD_CAT_ID":49147,"ELEMENT_SET_NO":999,"REV_AT_EPOCH":21776,"BSTAR":3.6199376e-5,"MEAN_MOTION_DOT":3.39e-6,"MEAN_MOTION_DDOT":0},{"OBJECT_NAME":"STARLINK-3048","OBJECT_ID":"2021-082U","EPOCH":"2025-08-26T21:17:14.158752","MEAN_MOTION":14.97523249,"ECCENTRICITY":0.0002803,"INCLINATION":70.0003,"RA_OF_ASC_NODE":45.7769,"ARG_OF_PERICENTER":271.1449,"MEAN_ANOMALY":88.9388,"EPHEMERIS_TYPE":0,"CLASSIFICATION_TYPE":"U","NORAD_CAT_ID":49148,"ELEMENT_SET_NO":999,"REV_AT_EPOCH":21728,"BSTAR":3.1174309e-5,"MEAN_MOTION_DOT":2.72e-6,"MEAN_MOTION_DDOT":0},{"OBJECT_NAME":"STARLINK-3102","OBJECT_ID":"2021-082X","EPOCH":"2025-08-26T20:05:15.430560","MEAN_MOTION":14.98327098,"ECCENTRICITY":0.00032568,"INCLINATION":70.0011,"RA_OF_ASC_NODE":25.7415,"ARG_OF_PERICENTER":267.1286,"MEAN_ANOMALY":92.95,"EPHEMERIS_TYPE":0,"CLASSIFICATION_TYPE":"U","NORAD_CAT_ID":49151,"ELEMENT_SET_NO":999,"REV_AT_EPOCH":21897,"BSTAR":0.00010452053,"MEAN_MOTION_DOT":1.154e-5,"MEAN_MOTION_DDOT":0},{"OBJECT_NAME":"STARLINK-3072","OBJECT_ID":"2021-082Z","EPOCH":"2025-08-26T19:53:13.392672","MEAN_MOTION":14.9833031,"ECCENTRICITY":0.0003154,"INCLINATION":70.0011,"RA_OF_ASC_NODE":25.7683,"ARG_OF_PERICENTER":270.3739,"MEAN_ANOMALY":89.7059,"EPHEMERIS_TYPE":0,"CLASSIFICATION_TYPE":"U","NORAD_CAT_ID":49153,"ELEMENT_SET_NO":999,"REV_AT_EPOCH":21898,"BSTAR":2.2496194e-5,"MEAN_MOTION_DOT":1.75e-6,"MEAN_MOTION_DDOT":0},{"OBJECT_NAME":"STARLINK-3068","OBJECT_ID":"2021-082AA","EPOCH":"2025-08-26T21:11:13.703136","MEAN_MOTION":14.97522394,"ECCENTRICITY":0.0002697,"INCLINATION":70.0002,"RA_OF_ASC_NODE":45.7914,"ARG_OF_PERICENTER":269.7778,"MEAN_ANOMALY":90.3071,"EPHEMERIS_TYPE":0,"CLASSIFICATION_TYPE":"U","NORAD_CAT_ID":49154,"ELEMENT_SET_NO":999,"REV_AT_EPOCH":21836,"BSTAR":6.578254e-5,"MEAN_MOTION_DOT":6.77e-6,"MEAN_MOTION_DDOT":0},{"OBJECT_NAME":"STARLINK-3060","OBJECT_ID":"2021-082AB","EPOCH":"2025-08-26T19:47:12.525792","MEAN_MOTION":14.98332906,"ECCENTRICITY":0.00030516,"INCLINATION":70.0011,"RA_OF_ASC_NODE":25.7721,"ARG_OF_PERICENTER":267.9938,"MEAN_ANOMALY":92.0872,"EPHEMERIS_TYPE":0,"CLASSIFICATION_TYPE":"U","NORAD_CAT_ID":49155,"ELEMENT_SET_NO":999,"REV_AT_EPOCH":21885,"BSTAR":4.040767e-5,"MEAN_MOTION_DOT":3.89e-6,"MEAN_MOTION_DDOT":0}]
